LEMUR-2-DELOITTE-1      
1 63259U 25052BB  26068.93956839  .00005004  00000+0  44206-3 0  9990
2 63259  97.7035 323.2090 0003011  78.3841 281.7719 14.96797120 53844
STARLINK-33877          
1 63933U 25098H   26068.94337454  .00005653  00000+0  48096-3 0  9997
2 63933  70.0009 273.6756 0002695 259.6474 100.4382 14.98349502 46617
